[{"OBJECT_NAME":"STARLINK-36098","OBJECT_ID":"2025-278AB","EPOCH":"2026-03-09T11:49:30.245088","MEAN_MOTION":15.27601999,"ECCENTRICITY":9.493e-5,"INCLINATION":42.9988,"RA_OF_ASC_NODE":115.068,"ARG_OF_PERICENTER":16.3648,"MEAN_ANOMALY":343.7234,"EPHEMERIS_TYPE":0,"CLASSIFICATION_TYPE":"U","NORAD_CAT_ID":66816,"ELEMENT_SET_NO":999,"REV_AT_EPOCH":1518,"BSTAR":0.0013487873,"MEAN_MOTION_DOT":0.00037065,"MEAN_MOTION_DDOT":0},{"OBJECT_NAME":"OBJECT P","OBJECT_ID":"2018-099P","EPOCH":"2026-03-09T16:35:55.790016","MEAN_MOTION":15.30834106,"ECCENTRICITY":0.00076856,"INCLINATION":97.4366,"RA_OF_ASC_NODE":131.9195,"ARG_OF_PERICENTER":276.7627,"MEAN_ANOMALY":83.2739,"EPHEMERIS_TYPE":0,"CLASSIFICATION_TYPE":"U","NORAD_CAT_ID":43771,"ELEMENT_SET_NO":999,"REV_AT_EPOCH":39830,"BSTAR":0.00063632878,"MEAN_MOTION_DOT":0.00018926,"MEAN_MOTION_DDOT":0}]
